{"type": "FeatureCollection", "features": [ {"type": "Feature", "properties": {"norad_id": 66563, "name": "STARLINK-35437", "group": "last-30-days", "lat": -26.829416284288627, "lon": 6.745744494097351, "alt_km": 390.3627359879374, "timestamp": "2025-12-07T03:52:31.204164+00:00", "meta": {"OBJECT_NAME": "STARLINK-35437", "OBJECT_ID": "2025-268G", "EPOCH": "2025-12-06T14:00:01.999872", "MEAN_MOTION": 15.62106782, "ECCENTRICITY": 0.00013255, "INCLINATION": 42.9997, "RA_OF_ASC_NODE": 157.3072, "ARG_OF_PERICENTER": 259.9504, "MEAN_ANOMALY": 309.0934, "EPHEMERIS_TYPE": 0, "CLASSIFICATION_TYPE": "U", "NORAD_CAT_ID": 66563, "ELEMENT_SET_NO": 999, "REV_AT_EPOCH": 368, "BSTAR": -0.025296068, "MEAN_MOTION_DOT": -0.02002363, "MEAN_MOTION_DDOT": 0}, "tle": {"line1": "1 66563U 25268G   25340.58335648 -.02002363  00000+0 -25296-1 0  9997", "line2": "2 66563  42.9997 157.3072 0001325 259.9504 309.0934 15.62106782  3681"}}, "geometry": {"type": "Point", "coordinates": [6.745744494097351, -26.829416284288627]}}, {"type": "Feature", "properties": {"norad_id": 66564, "name": "STARLINK-35358", "group": "last-30-days", "lat": -27.91556177771963, "lon": 8.519091121330517, "alt_km": 390.34935959463473, "timestamp": "2025-12-07T03:52:31.204174+00:00", "meta": {"OBJECT_NAME": "STARLINK-35358", "OBJECT_ID": "2025-268H", "EPOCH": "2025-12-06T14:00:01.999872", "MEAN_MOTION": 15.6210414, "ECCENTRICITY": 0.0001402, "INCLINATION": 42.9997, "RA_OF_ASC_NODE": 157.3025, "ARG_OF_PERICENTER": 259.2458, "MEAN_ANOMALY": 311.7146, "EPHEMERIS_TYPE": 0, "CLASSIFICATION_TYPE": "U", "NORAD_CAT_ID": 66564, "ELEMENT_SET_NO": 999, "REV_AT_EPOCH": 363, "BSTAR": -0.025228945, "MEAN_MOTION_DOT": -0.0199758, "MEAN_MOTION_DDOT": 0}, "tle": {"line1": "1 66564U 25268H   25340.58335648 -.01997580  00000+0 -25229-1 0  9997", "line2": "2 66564  42.9997 157.3025 0001402 259.2458 311.7146 15.62104140  3633"}}, "geometry": {"type": "Point", "coordinates": [8.519091121330517, -27.91556177771963]}}, {"type": "Feature", "properties": {"norad_id": 66565, "name": "STARLINK-35893", "group": "last-30-days", "lat": -28.957637242579786, "lon": 10.291290953269579, "alt_km": 391.10427419288135, "timestamp": "2025-12-07T03:52:31.204186+00:00", "meta": {"OBJECT_NAME": "STARLINK-35893", "OBJECT_ID": "2025-268J", "EPOCH": "2025-12-06T14:00:01.999872", "MEAN_MOTION": 15.62132226, "ECCENTRICITY": 0.00010483, "INCLINATION": 43, "RA_OF_ASC_NODE": 157.2974, "ARG_OF_PERICENTER": 273.6039, "MEAN_ANOMALY": 299.3163, "EPHEMERIS_TYPE": 0, "CLASSIFICATION_TYPE": "U", "NORAD_CAT_ID": 66565, "ELEMENT_SET_NO": 999, "REV_AT_EPOCH": 368, "BSTAR": -0.026548548, "MEAN_MOTION_DOT": -0.02090255, "MEAN_MOTION_DDOT": 0}, "tle": {"line1": "1 66565U 25268J   25340.58335648 -.02090255  00000+0 -26549-1 0  9998", "line2": "2 66565  43.0000 157.2974 0001048 273.6039 299.3163 15.62132226  3685"}}, "geometry": {"type": "Point", "coordinates": [10.291290953269579, -28.957637242579786]}}, {"type": "Feature", "properties": {"norad_id": 66566, "name": "STARLINK-35871", "group": "last-30-days", "lat": -30.015153364038042, "lon": 12.170903115899616, "alt_km": 390.4214789019197, "timestamp": "2025-12-07T03:52:31.204197+00:00", "meta": {"OBJECT_NAME": "STARLINK-35871", "OBJECT_ID": "2025-268K", "EPOCH": "2025-12-06T14:00:01.999872", "MEAN_MOTION": 15.62104823, "ECCENTRICITY": 0.00014513, "INCLINATION": 43.0001, "RA_OF_ASC_NODE": 157.2926, "ARG_OF_PERICENTER": 259.7293, "MEAN_ANOMALY": 315.0649, "EPHEMERIS_TYPE": 0, "CLASSIFICATION_TYPE": "U", "NORAD_CAT_ID": 66566, "ELEMENT_SET_NO": 999, "REV_AT_EPOCH": 368, "BSTAR": -0.025245452, "MEAN_MOTION_DOT": -0.01998809, "MEAN_MOTION_DDOT": 0}, "tle": {"line1": "1 66566U 25268K   25340.58335648 -.01998809  00000+0 -25245-1 0  9992", "line2": "2 66566  43.0001 157.2926 0001451 259.7293 315.0649 15.62104823  3686"}}, "geometry": {"type": "Point", "coordinates": [12.170903115899616, -30.015153364038042]}}, {"type": "Feature", "properties": {"norad_id": 66567, "name": "STARLINK-35825", "group": "last-30-days", "lat": -31.0263594483627, "lon": 14.05518040193866, "alt_km": 390.5161747457896, "timestamp": "2025-12-07T03:52:31.204227+00:00", "meta": {"OBJECT_NAME": "STARLINK-35825", "OBJECT_ID": "2025-268L", "EPOCH": "2025-12-06T14:00:01.999872", "MEAN_MOTION": 15.62106177, "ECCENTRICITY": 0.00013892, "INCLINATION": 43, "RA_OF_ASC_NODE": 157.288, "ARG_OF_PERICENTER": 260.8347, "MEAN_ANOMALY": 315.8765, "EPHEMERIS_TYPE": 0, "CLASSIFICATION_TYPE": "U", "NORAD_CAT_ID": 66567, "ELEMENT_SET_NO": 999, "REV_AT_EPOCH": 368, "BSTAR": -0.025269017, "MEAN_MOTION_DOT": -0.02000492, "MEAN_MOTION_DDOT": 0}, "tle": {"line1": "1 66567U 25268L   25340.58335648 -.02000492  00000+0 -25269-1 0  9992", "line2": "2 66567  43.0000 157.2880 0001389 260.8347 315.8765 15.62106177  3689"}}, "geometry": {"type": "Point", "coordinates": [14.05518040193866, -31.0263594483627]}}, {"type": "Feature", "properties": {"norad_id": 66568, "name": "STARLINK-35803", "group": "last-30-days", "lat": -32.01067262074867, "lon": 15.981327452640942, "alt_km": 390.4737753489162, "timestamp": "2025-12-07T03:52:31.204254+00:00", "meta": {"OBJECT_NAME": "STARLINK-35803", "OBJECT_ID": "2025-268M", "EPOCH": "2025-12-06T14:00:01.999872", "MEAN_MOTION": 15.62104987, "ECCENTRICITY": 0.00014092, "INCLINATION": 42.9999, "RA_OF_ASC_NODE": 157.2829, "ARG_OF_PERICENTER": 256.5957, "MEAN_ANOMALY": 322.0311, "EPHEMERIS_TYPE": 0, "CLASSIFICATION_TYPE": "U", "NORAD_CAT_ID": 66568, "ELEMENT_SET_NO": 999, "REV_AT_EPOCH": 368, "BSTAR": -0.025220579, "MEAN_MOTION_DOT": -0.01997062, "MEAN_MOTION_DDOT": 0}, "tle": {"line1": "1 66568U 25268M   25340.58335648 -.01997062  00000+0 -25221-1 0  9998", "line2": "2 66568  42.9999 157.2829 0001409 256.5957 322.0311 15.62104987  3684"}}, "geometry": {"type": "Point", "coordinates": [15.981327452640942, -32.01067262074867]}}, {"type": "Feature", "properties": {"norad_id": 66569, "name": "STARLINK-35835", "group": "last-30-days", "lat": -32.96349092455288, "lon": 17.945866889281536, "alt_km": 390.5405499861972, "timestamp": "2025-12-07T03:52:31.204271+00:00", "meta": {"OBJECT_NAME": "STARLINK-35835", "OBJECT_ID": "2025-268N", "EPOCH": "2025-12-06T14:00:01.999872", "MEAN_MOTION": 15.62104238, "ECCENTRICITY": 0.00013888, "INCLINATION": 42.9998, "RA_OF_ASC_NODE": 157.2783, "ARG_OF_PERICENTER": 257.6896, "MEAN_ANOMALY": 322.8559, "EPHEMERIS_TYPE": 0, "CLASSIFICATION_TYPE": "U", "NORAD_CAT_ID": 66569, "ELEMENT_SET_NO": 999, "REV_AT_EPOCH": 368, "BSTAR": -0.025224621, "MEAN_MOTION_DOT": -0.01997276, "MEAN_MOTION_DDOT": 0}, "tle": {"line1": "1 66569U 25268N   25340.58335648 -.01997276  00000+0 -25225-1 0  9990", "line2": "2 66569  42.9998 157.2783 0001388 257.6896 322.8559 15.62104238  3684"}}, "geometry": {"type": "Point", "coordinates": [17.945866889281536, -32.96349092455288]}}, {"type": "Feature", "properties": {"norad_id": 66570, "name": "STARLINK-35834", "group": "last-30-days", "lat": -33.88494881151637, "lon": 19.951263722278167, "alt_km": 390.602404641234, "timestamp": "2025-12-07T03:52:31.204282+00:00", "meta": {"OBJECT_NAME": "STARLINK-35834", "OBJECT_ID": "2025-268P", "EPOCH": "2025-12-06T14:00:01.999872", "MEAN_MOTION": 15.62103939, "ECCENTRICITY": 0.00013968, "INCLINATION": 43.0001, "RA_OF_ASC_NODE": 157.2727, "ARG_OF_PERICENTER": 260.0515, "MEAN_ANOMALY": 322.4131, "EPHEMERIS_TYPE": 0, "CLASSIFICATION_TYPE": "U", "NORAD_CAT_ID": 66570, "ELEMENT_SET_NO": 999, "REV_AT_EPOCH": 368, "BSTAR": -0.025234669, "MEAN_MOTION_DOT": -0.01997959, "MEAN_MOTION_DDOT": 0}, "tle": {"line1": "1 66570U 25268P   25340.58335648 -.01997959  00000+0 -25235-1 0  9991", "line2": "2 66570  43.0001 157.2727 0001396 260.0515 322.4131 15.62103939  3685"}}, "geometry": {"type": "Point", "coordinates": [19.951263722278167, -33.88494881151637]}}, {"type": "Feature", "properties": {"norad_id": 66571, "name": "STARLINK-35836", "group": "last-30-days", "lat": -34.773273187984024, "lon": 22.002385363186725, "alt_km": 390.6256007123138, "timestamp": "2025-12-07T03:52:31.204292+00:00", "meta": {"OBJECT_NAME": "STARLINK-35836", "OBJECT_ID": "2025-268Q", "EPOCH": "2025-12-06T14:00:01.999872", "MEAN_MOTION": 15.62106091, "ECCENTRICITY": 0.00013852, "INCLINATION": 42.9999, "RA_OF_ASC_NODE": 157.2681, "ARG_OF_PERICENTER": 258.7702, "MEAN_ANOMALY": 325.6098, "EPHEMERIS_TYPE": 0, "CLASSIFICATION_TYPE": "U", "NORAD_CAT_ID": 66571, "ELEMENT_SET_NO": 999, "REV_AT_EPOCH": 368, "BSTAR": -0.02526045, "MEAN_MOTION_DOT": -0.01999888, "MEAN_MOTION_DDOT": 0}, "tle": {"line1": "1 66571U 25268Q   25340.58335648 -.01999888  00000+0 -25260-1 0  9993", "line2": "2 66571  42.9999 157.2681 0001385 258.7702 325.6098 15.62106091  3688"}}, "geometry": {"type": "Point", "coordinates": [22.002385363186725, -34.773273187984024]}}, {"type": "Feature", "properties": {"norad_id": 66572, "name": "STARLINK-35870", "group": "last-30-days", "lat": -35.62683446240974, "lon": 24.099756424613023, "alt_km": 390.67351674777365, "timestamp": "2025-12-07T03:52:31.204304+00:00", "meta": {"OBJECT_NAME": "STARLINK-35870", "OBJECT_ID": "2025-268R", "EPOCH": "2025-12-06T14:00:01.999872", "MEAN_MOTION": 15.6210136, "ECCENTRICITY": 0.00013363, "INCLINATION": 42.9996, "RA_OF_ASC_NODE": 157.2643, "ARG_OF_PERICENTER": 258.3682, "MEAN_ANOMALY": 327.9316, "EPHEMERIS_TYPE": 0, "CLASSIFICATION_TYPE": "U", "NORAD_CAT_ID": 66572, "ELEMENT_SET_NO": 999, "REV_AT_EPOCH": 368, "BSTAR": -0.025177907, "MEAN_MOTION_DOT": -0.01993795, "MEAN_MOTION_DDOT": 0}, "tle": {"line1": "1 66572U 25268R   25340.58335648 -.01993795  00000+0 -25178-1 0  9993", "line2": "2 66572  42.9996 157.2643 0001336 258.3682 327.9316 15.62101360  3685"}}, "geometry": {"type": "Point", "coordinates": [24.099756424613023, -35.62683446240974]}}]}